{
"type": "FeatureCollection",
"name": "SaranaIbadah",
"crs": { "type": "name", "properties": { "name": "urn:ogc:def:crs:OGC:1.3:CRS84" } },
"features": [
{ "type": "Feature", "properties": { "NAMOBJ": "Gereja Masehi Advent Hari Ketujuh Kemiling", "LUAS": 0.0, "FGSIBD": 2, "FCODE": null, "REMARK": "Gereja", "SRS_ID": null, "LCODE": "GF0020", "METADATA": null, "Kecamatan": "Kemiling" }, "geometry": { "type": "Point", "coordinates": [ 105.209281007000072, -5.403230042999951, 276.75800000000163 ] } },
{ "type": "Feature", "properties": { "NAMOBJ": "Masjid Nurul Ihsan Beringinjaya", "LUAS": 0.0, "FGSIBD": 1, "FCODE": null, "REMARK": "Masjid", "SRS_ID": null, "LCODE": "GF0020", "METADATA": null, "Kecamatan": "Kemiling" }, "geometry": { "type": "Point", "coordinates": [ 105.20988544800008, -5.402252817999965, 268.834000000002561 ] } },
{ "type": "Feature", "properties": { "NAMOBJ": "Masjid La Tansa Perum Wana Asri", "LUAS": 0.0, "FGSIBD": 1, "FCODE": null, "REMARK": "Masjid", "SRS_ID": null, "LCODE": "GF0020", "METADATA": null, "Kecamatan": "Kemiling" }, "geometry": { "type": "Point", "coordinates": [ 105.205786998000065, -5.401032949999944, 280.415999999997439 ] } },
{ "type": "Feature", "properties": { "NAMOBJ": "Masjid At Taqwa Sukarame Dua", "LUAS": 0.0, "FGSIBD": 1, "FCODE": null, "REMARK": "Masjid", "SRS_ID": null, "LCODE": "GF0020", "METADATA": null, "Kecamatan": "Teluk Betung Barat" }, "geometry": { "type": "Point", "coordinates": [ 105.239001379000058, -5.439070052999966, 295.0 ] } },
{ "type": "Feature", "properties": { "NAMOBJ": "Mushola Al Asyri Sukarame Dua", "LUAS": 0.0, "FGSIBD": 1, "FCODE": null, "REMARK": "Masjid", "SRS_ID": null, "LCODE": "GF0020", "METADATA": null, "Kecamatan": "Teluk Betung Barat" }, "geometry": { "type": "Point", "coordinates": [ 105.233349777000058, -5.437326306999978, 237.073499999998603 ] } },
{ "type": "Feature", "properties": { "NAMOBJ": "Masjid Al Amin Batuputuk", "LUAS": 0.0, "FGSIBD": 1, "FCODE": null, "REMARK": "Masjid", "SRS_ID": null, "LCODE": "GF0020", "METADATA": null, "Kecamatan": "Teluk Betung Barat" }, "geometry": { "type": "Point", "coordinates": [ 105.216595282000071, -5.436391724999964, 198.42500000000291 ] } },
{ "type": "Feature", "properties": { "NAMOBJ": "Mushola Duta Wisata", "LUAS": 0.0, "FGSIBD": 1, "FCODE": null, "REMARK": "Masjid", "SRS_ID": null, "LCODE": "GF0020", "METADATA": null, "Kecamatan": "Teluk Betung Timur" }, "geometry": { "type": "Point", "coordinates": [ 105.25113112400004, -5.476227760999961, 8.534400000004098 ] } },
{ "type": "Feature", "properties": { "NAMOBJ": "Masjid At Taqwa Keteguhan", "LUAS": 0.0, "FGSIBD": 1, "FCODE": null, "REMARK": "Masjid", "SRS_ID": null, "LCODE": "GF0020", "METADATA": null, "Kecamatan": "Teluk Betung Timur" }, "geometry": { "type": "Point", "coordinates": [ 105.247378667000078, -5.461601284999972, 82.628599999996368 ] } },
{ "type": "Feature", "properties": { "NAMOBJ": "Masjid An Nur Kotakarangraya", "LUAS": 0.0, "FGSIBD": 1, "FCODE": null, "REMARK": "Masjid", "SRS_ID": null, "LCODE": "GF0020", "METADATA": null, "Kecamatan": "Teluk Betung Timur" }, "geometry": { "type": "Point", "coordinates": [ 105.255863543000032, -5.459589429999937, 22.0 ] } },
{ "type": "Feature", "properties": { "NAMOBJ": "Yayasan Budhisattva Telukbetung", "LUAS": 0.0, "FGSIBD": 999, "FCODE": null, "REMARK": "Peribadatan/Sosial Lainnya", "SRS_ID": null, "LCODE": "GF0020", "METADATA": null, "Kecamatan": "Teluk Betung Selatan" }, "geometry": { "type": "Point", "coordinates": [ 105.259424723000052, -5.451563960999977, 0.0 ] } },
{ "type": "Feature", "properties": { "NAMOBJ": "Vihara Thay Hin Bo Telukbetung", "LUAS": 0.0, "FGSIBD": 4, "FCODE": null, "REMARK": "Vihara", "SRS_ID": null, "LCODE": "GF0020", "METADATA": null, "Kecamatan": "Teluk Betung Selatan" }, "geometry": { "type": "Point", "coordinates": [ 105.263174219000064, -5.448789249999948, 0.0 ] } },
{ "type": "Feature", "properties": { "NAMOBJ": "Gereja Agape Telukbetung", "LUAS": 0.0, "FGSIBD": 2, "FCODE": null, "REMARK": "Gereja", "SRS_ID": null, "LCODE": "GF0020", "METADATA": null, "Kecamatan": "Teluk Betung Selatan" }, "geometry": { "type": "Point", "coordinates": [ 105.261440127000071, -5.447783362999928, 0.0 ] } },
{ "type": "Feature", "properties": { "NAMOBJ": "Mushola Al Falah Pesawahan", "LUAS": 0.0, "FGSIBD": 1, "FCODE": null, "REMARK": "Masjid", "SRS_ID": null, "LCODE": "GF0020", "METADATA": null, "Kecamatan": "Teluk Betung Selatan" }, "geometry": { "type": "Point", "coordinates": [ 105.260113999000055, -5.44725251999995, 0.0 ] } },
{ "type": "Feature", "properties": { "NAMOBJ": "Mushola Al Ikhlas Sumurputri", "LUAS": 0.0, "FGSIBD": 1, "FCODE": null, "REMARK": "Masjid", "SRS_ID": null, "LCODE": "GF0020", "METADATA": null, "Kecamatan": "Teluk Betung Selatan" }, "geometry": { "type": "Point", "coordinates": [ 105.254338027000074, -5.438376253999934, 234.0 ] } },
{ "type": "Feature", "properties": { "NAMOBJ": "Vihara Kshanti Maitreya Sukaraja", "LUAS": 0.0, "FGSIBD": 4, "FCODE": null, "REMARK": "Vihara", "SRS_ID": null, "LCODE": "GF0020", "METADATA": null, "Kecamatan": "Bumi Waras" }, "geometry": { "type": "Point", "coordinates": [ 105.285658884000043, -5.441267609999954, 0.0 ] } },
{ "type": "Feature", "properties": { "NAMOBJ": "Masjid Al Munawarah Bumiwaras", "LUAS": 0.0, "FGSIBD": 1, "FCODE": null, "REMARK": "Masjid", "SRS_ID": null, "LCODE": "GF0020", "METADATA": null, "Kecamatan": "Bumi Waras" }, "geometry": { "type": "Point", "coordinates": [ 105.283221987000047, -5.440309301999946, 0.0 ] } },
{ "type": "Feature", "properties": { "NAMOBJ": "Gereja Maranatha Bumiraya", "LUAS": 0.0, "FGSIBD": 2, "FCODE": null, "REMARK": "Gereja", "SRS_ID": null, "LCODE": "GF0020", "METADATA": null, "Kecamatan": "Bumi Waras" }, "geometry": { "type": "Point", "coordinates": [ 105.280633463000072, -5.438407108999968, 0.276800000006915 ] } },
{ "type": "Feature", "properties": { "NAMOBJ": "Gereja Baptis Indonesia Imanuel Panjang", "LUAS": 0.0, "FGSIBD": 2, "FCODE": null, "REMARK": "Gereja", "SRS_ID": null, "LCODE": "GF0020", "METADATA": null, "Kecamatan": "Panjang" }, "geometry": { "type": "Point", "coordinates": [ 105.322478631000081, -5.48119623499997, 12.19199999999546 ] } },
{ "type": "Feature", "properties": { "NAMOBJ": "Masjid Baiturrohmah Harapanjaya", "LUAS": 0.0, "FGSIBD": 1, "FCODE": null, "REMARK": "Masjid", "SRS_ID": null, "LCODE": "GF0020", "METADATA": null, "Kecamatan": "Panjang" }, "geometry": { "type": "Point", "coordinates": [ 105.321413286000052, -5.481033972999967, 12.801600000006147 ] } },
{ "type": "Feature", "properties": { "NAMOBJ": "Kelenteng Telukharapan", "LUAS": 0.0, "FGSIBD": 5, "FCODE": null, "REMARK": "Kelenteng", "SRS_ID": null, "LCODE": "GF0020", "METADATA": null, "Kecamatan": "Panjang" }, "geometry": { "type": "Point", "coordinates": [ 105.32143000700006, -5.47853717299995, 12.801600000006147 ] } },
{ "type": "Feature", "properties": { "NAMOBJ": "Mushola Baitul Jamil Bukit Palm Hijau", "LUAS": 0.0, "FGSIBD": 1, "FCODE": null, "REMARK": "Masjid", "SRS_ID": null, "LCODE": "GF0020", "METADATA": null, "Kecamatan": "Sukabumi" }, "geometry": { "type": "Point", "coordinates": [ 105.325203954000074, -5.412143961999959, 145.085000000006403 ] } },
{ "type": "Feature", "properties": { "NAMOBJ": "Masjid Nurul Jannah Panitrik", "LUAS": 0.0, "FGSIBD": 1, "FCODE": null, "REMARK": "Masjid", "SRS_ID": null, "LCODE": "GF0020", "METADATA": null, "Kecamatan": "Sukabumi" }, "geometry": { "type": "Point", "coordinates": [ 105.309397247000049, -5.409863503999929, 113.081000000005588 ] } },
{ "type": "Feature", "properties": { "NAMOBJ": "Gereja Injil Indonesia Villa Bukit Tirtayasa", "LUAS": 0.0, "FGSIBD": 2, "FCODE": null, "REMARK": "Gereja", "SRS_ID": null, "LCODE": "GF0020", "METADATA": null, "Kecamatan": "Sukabumi" }, "geometry": { "type": "Point", "coordinates": [ 105.314548611000077, -5.404442076999942, 149.657000000006519 ] } },
{ "type": "Feature", "properties": { "NAMOBJ": "Masjid Al Aulia Waydadi", "LUAS": 0.0, "FGSIBD": 1, "FCODE": null, "REMARK": "Masjid", "SRS_ID": null, "LCODE": "GF0020", "METADATA": null, "Kecamatan": "Sukarame" }, "geometry": { "type": "Point", "coordinates": [ 105.296852564000062, -5.377320859999941, 110.338000000003376 ] } },
{ "type": "Feature", "properties": { "NAMOBJ": "Masjid Darussalam Waydadi", "LUAS": 0.0, "FGSIBD": 1, "FCODE": null, "REMARK": "Masjid", "SRS_ID": null, "LCODE": "GF0020", "METADATA": null, "Kecamatan": "Sukarame" }, "geometry": { "type": "Point", "coordinates": [ 105.293070552000074, -5.377150806999964, 104.546000000002095 ] } },
{ "type": "Feature", "properties": { "NAMOBJ": "Masjid Tawakal Sukarame Satu", "LUAS": 0.0, "FGSIBD": 1, "FCODE": null, "REMARK": "Masjid", "SRS_ID": null, "LCODE": "GF0020", "METADATA": null, "Kecamatan": "Sukarame" }, "geometry": { "type": "Point", "coordinates": [ 105.289062650000062, -5.376474238999947, 109.728000000002794 ] } },
{ "type": "Feature", "properties": { "NAMOBJ": "Mushola Pematangwangi", "LUAS": 0.0, "FGSIBD": 1, "FCODE": null, "REMARK": "Masjid", "SRS_ID": null, "LCODE": "GF0020", "METADATA": null, "Kecamatan": "Tanjung Senang" }, "geometry": { "type": "Point", "coordinates": [ 105.278317495000067, -5.362691842999936, 111.861999999993714 ] } },
{ "type": "Feature", "properties": { "NAMOBJ": "Gereja Labuhanratu", "LUAS": 0.0, "FGSIBD": 2, "FCODE": null, "REMARK": "Gereja", "SRS_ID": null, "LCODE": "GF0020", "METADATA": null, "Kecamatan": "Tanjung Senang" }, "geometry": { "type": "Point", "coordinates": [ 105.255695692000074, -5.360829766999927, 401.0 ] } },
{ "type": "Feature", "properties": { "NAMOBJ": "Masjid Nurul Amal Tanjungraya", "LUAS": 0.0, "FGSIBD": 1, "FCODE": null, "REMARK": "Masjid", "SRS_ID": null, "LCODE": "GF0020", "METADATA": null, "Kecamatan": "Tanjung Senang" }, "geometry": { "type": "Point", "coordinates": [ 105.280264054000043, -5.360728542999937, 109.728000000002794 ] } },
{ "type": "Feature", "properties": { "NAMOBJ": "Masjid Baitul Makmur Rajabasa", "LUAS": 0.0, "FGSIBD": 1, "FCODE": null, "REMARK": "Masjid", "SRS_ID": null, "LCODE": "GF0020", "METADATA": null, "Kecamatan": "Rajabasa" }, "geometry": { "type": "Point", "coordinates": [ 105.231874246000075, -5.379763344999958, 483.0 ] } },
{ "type": "Feature", "properties": { "NAMOBJ": "Masjid Baburrohman Gunungterang", "LUAS": 0.0, "FGSIBD": 1, "FCODE": null, "REMARK": "Masjid", "SRS_ID": null, "LCODE": "GF0020", "METADATA": null, "Kecamatan": "Rajabasa" }, "geometry": { "type": "Point", "coordinates": [ 105.241577634000066, -5.379588339999941, 0.0 ] } },
{ "type": "Feature", "properties": { "NAMOBJ": "Masjid Nurul Islah Gedongmeneng", "LUAS": 0.0, "FGSIBD": 1, "FCODE": null, "REMARK": "Masjid", "SRS_ID": null, "LCODE": "GF0020", "METADATA": null, "Kecamatan": "Rajabasa" }, "geometry": { "type": "Point", "coordinates": [ 105.242278922000082, -5.374868117999938, 0.0 ] } },
{ "type": "Feature", "properties": { "NAMOBJ": "Masjid Nurul Huda Gunungagung", "LUAS": 0.0, "FGSIBD": 1, "FCODE": null, "REMARK": "Masjid", "SRS_ID": null, "LCODE": "GF0020", "METADATA": null, "Kecamatan": "Langkapura" }, "geometry": { "type": "Point", "coordinates": [ 105.235596, -5.391873, 179.222399999998743 ] } },
{ "type": "Feature", "properties": { "NAMOBJ": "Masjid Saikhul Ulum Langkapura", "LUAS": 0.0, "FGSIBD": 1, "FCODE": null, "REMARK": "Masjid", "SRS_ID": null, "LCODE": "GF0020", "METADATA": null, "Kecamatan": "Langkapura" }, "geometry": { "type": "Point", "coordinates": [ 105.222274318000075, -5.389809550999928, 213.054999999993015 ] } },
{ "type": "Feature", "properties": { "NAMOBJ": "Mushola Gunungterang", "LUAS": 0.0, "FGSIBD": 1, "FCODE": null, "REMARK": "Masjid", "SRS_ID": null, "LCODE": "GF0020", "METADATA": null, "Kecamatan": "Langkapura" }, "geometry": { "type": "Point", "coordinates": [ 105.229727999000033, -5.384324639999932, 538.0 ] } },
{ "type": "Feature", "properties": { "NAMOBJ": "Masjid Abraham Labuhanratu", "LUAS": 0.0, "FGSIBD": 1, "FCODE": null, "REMARK": "Masjid", "SRS_ID": null, "LCODE": "GF0020", "METADATA": null, "Kecamatan": "Labuhan Ratu" }, "geometry": { "type": "Point", "coordinates": [ 105.254870991000075, -5.374508312999978, 420.0 ] } },
{ "type": "Feature", "properties": { "NAMOBJ": "Masjid Al Hikmah Kampungbaru Tiga", "LUAS": 0.0, "FGSIBD": 1, "FCODE": null, "REMARK": "Masjid", "SRS_ID": null, "LCODE": "GF0020", "METADATA": null, "Kecamatan": "Labuhan Ratu" }, "geometry": { "type": "Point", "coordinates": [ 105.250709037000036, -5.372230336999962, 414.040699999997742 ] } },
{ "type": "Feature", "properties": { "NAMOBJ": "Masjid Al Hikmah Kampungbaru", "LUAS": 0.0, "FGSIBD": 1, "FCODE": null, "REMARK": "Masjid", "SRS_ID": null, "LCODE": "GF0020", "METADATA": null, "Kecamatan": "Labuhan Ratu" }, "geometry": { "type": "Point", "coordinates": [ 105.25070902300007, -5.372194150999974, 157.277000000001863 ] } },
{ "type": "Feature", "properties": { "NAMOBJ": "Vihara Virya Paramita Sepangjaya", "LUAS": 0.0, "FGSIBD": 4, "FCODE": null, "REMARK": "Vihara", "SRS_ID": null, "LCODE": "GF0020", "METADATA": null, "Kecamatan": "Labuhan Ratu" }, "geometry": { "type": "Point", "coordinates": [ 105.268155322000041, -5.369825621999951, 376.88980000000447 ] } },
{ "type": "Feature", "properties": { "NAMOBJ": "Masjid Al Awwal Sidodadi", "LUAS": 0.0, "FGSIBD": 1, "FCODE": null, "REMARK": "Masjid", "SRS_ID": null, "LCODE": "GF0020", "METADATA": null, "Kecamatan": "Kedaton" }, "geometry": { "type": "Point", "coordinates": [ 105.258928663000063, -5.393980058999944, 0.0 ] } },
{ "type": "Feature", "properties": { "NAMOBJ": "Gereja GGP Anugerah Kedaton", "LUAS": 0.0, "FGSIBD": 2, "FCODE": null, "REMARK": "Gereja", "SRS_ID": null, "LCODE": "GF0020", "METADATA": null, "Kecamatan": "Kedaton" }, "geometry": { "type": "Point", "coordinates": [ 105.259019278000039, -5.392094748999966, 0.0 ] } },
{ "type": "Feature", "properties": { "NAMOBJ": "Masjid Al Hikmah Kedaton", "LUAS": 0.0, "FGSIBD": 1, "FCODE": null, "REMARK": "Masjid", "SRS_ID": null, "LCODE": "GF0020", "METADATA": null, "Kecamatan": "Kedaton" }, "geometry": { "type": "Point", "coordinates": [ 105.258982576000051, -5.383718808999959, 0.0 ] } },
{ "type": "Feature", "properties": { "NAMOBJ": "Gereja Pantekosta Indonesia Jagabaya Tiga", "LUAS": 0.0, "FGSIBD": 2, "FCODE": null, "REMARK": "Gereja", "SRS_ID": null, "LCODE": "GF0020", "METADATA": null, "Kecamatan": "Way Halim" }, "geometry": { "type": "Point", "coordinates": [ 105.272556695000048, -5.402906402999974, 91.744800000000396 ] } },
{ "type": "Feature", "properties": { "NAMOBJ": "Masjid Khoirul Karim", "LUAS": 0.0, "FGSIBD": 1, "FCODE": null, "REMARK": "Masjid", "SRS_ID": null, "LCODE": "GF0020", "METADATA": null, "Kecamatan": "Way Halim" }, "geometry": { "type": "Point", "coordinates": [ 105.270407357000067, -5.400573389999977, 99.669599999993807 ] } },
{ "type": "Feature", "properties": { "NAMOBJ": "Masjid Ad Du'a Wayhalim", "LUAS": 0.0, "FGSIBD": 1, "FCODE": null, "REMARK": "Masjid", "SRS_ID": null, "LCODE": "GF0020", "METADATA": null, "Kecamatan": "Way Halim" }, "geometry": { "type": "Point", "coordinates": [ 105.274491544000057, -5.381161548999955, 0.0 ] } },
{ "type": "Feature", "properties": { "NAMOBJ": "Vihara Suci Mulia Bumikedamaian", "LUAS": 0.0, "FGSIBD": 4, "FCODE": null, "REMARK": "Vihara", "SRS_ID": null, "LCODE": "GF0020", "METADATA": null, "Kecamatan": "Kedamaian" }, "geometry": { "type": "Point", "coordinates": [ 105.280487208000068, -5.41433743999994, 96.926399999996647 ] } },
{ "type": "Feature", "properties": { "NAMOBJ": "Gereja Bethany Bumi Asri", "LUAS": 0.0, "FGSIBD": 2, "FCODE": null, "REMARK": "Gereja", "SRS_ID": null, "LCODE": "GF0020", "METADATA": null, "Kecamatan": "Kedamaian" }, "geometry": { "type": "Point", "coordinates": [ 105.287374489000058, -5.414234701999931, 306.0 ] } },
{ "type": "Feature", "properties": { "NAMOBJ": "Masjid Al Amin Bumikedamaian", "LUAS": 0.0, "FGSIBD": 1, "FCODE": null, "REMARK": "Masjid", "SRS_ID": null, "LCODE": "GF0020", "METADATA": null, "Kecamatan": "Kedamaian" }, "geometry": { "type": "Point", "coordinates": [ 105.283682526000064, -5.414091699999972, 100.584000000002561 ] } },
{ "type": "Feature", "properties": { "NAMOBJ": "Gereja Kristen Tritunggal Bandarlampung", "LUAS": 0.0, "FGSIBD": 2, "FCODE": null, "REMARK": "Gereja", "SRS_ID": null, "LCODE": "GF0020", "METADATA": null, "Kecamatan": "Teluk Betung Utara" }, "geometry": { "type": "Point", "coordinates": [ 105.264517271000045, -5.445527364999975, 0.0 ] } },
{ "type": "Feature", "properties": { "NAMOBJ": "Masjid Nurul Iman Pengajaran", "LUAS": 0.0, "FGSIBD": 1, "FCODE": null, "REMARK": "Masjid", "SRS_ID": null, "LCODE": "GF0020", "METADATA": null, "Kecamatan": "Teluk Betung Utara" }, "geometry": { "type": "Point", "coordinates": [ 105.252178408000077, -5.433184519999941, 229.0 ] } },
{ "type": "Feature", "properties": { "NAMOBJ": "Vihara Pausen Thai Ti Bandarlampung", "LUAS": 0.0, "FGSIBD": 4, "FCODE": null, "REMARK": "Vihara", "SRS_ID": null, "LCODE": "GF0020", "METADATA": null, "Kecamatan": "Teluk Betung Utara" }, "geometry": { "type": "Point", "coordinates": [ 105.253052021000087, -5.433134930999927, 222.0 ] } },
{ "type": "Feature", "properties": { "NAMOBJ": "Mushola Babut Taubah Pelita", "LUAS": 0.0, "FGSIBD": 1, "FCODE": null, "REMARK": "Masjid", "SRS_ID": null, "LCODE": "GF0020", "METADATA": null, "Kecamatan": "Enggal" }, "geometry": { "type": "Point", "coordinates": [ 105.256873192000057, -5.420441413999981, 387.0 ] } },
{ "type": "Feature", "properties": { "NAMOBJ": "Vihara Cetya Setya Dharma Bandarlampung", "LUAS": 0.0, "FGSIBD": 4, "FCODE": null, "REMARK": "Vihara", "SRS_ID": null, "LCODE": "GF0020", "METADATA": null, "Kecamatan": "Enggal" }, "geometry": { "type": "Point", "coordinates": [ 105.25665385800005, -5.413947873999973, 0.0 ] } },
{ "type": "Feature", "properties": { "NAMOBJ": "Gereja Katedral Kristus Raja Bandarlampung", "LUAS": 0.0, "FGSIBD": 2, "FCODE": null, "REMARK": "Gereja", "SRS_ID": null, "LCODE": "GF0020", "METADATA": null, "Kecamatan": "Enggal" }, "geometry": { "type": "Point", "coordinates": [ 105.258320681000043, -5.409138250999945, 0.0 ] } },
{ "type": "Feature", "properties": { "NAMOBJ": "Mushola Nurul Karim kotabaru", "LUAS": 0.0, "FGSIBD": 1, "FCODE": null, "REMARK": "Masjid", "SRS_ID": null, "LCODE": "GF0020", "METADATA": null, "Kecamatan": "Tanjung Karang Timur" }, "geometry": { "type": "Point", "coordinates": [ 105.271503902000063, -5.420062959999939, 0.0 ] } },
{ "type": "Feature", "properties": { "NAMOBJ": "Mushola Nurul Falah Sawahlama", "LUAS": 0.0, "FGSIBD": 1, "FCODE": null, "REMARK": "Masjid", "SRS_ID": null, "LCODE": "GF0020", "METADATA": null, "Kecamatan": "Tanjung Karang Timur" }, "geometry": { "type": "Point", "coordinates": [ 105.264513176000037, -5.407916571999976, 0.0 ] } },
{ "type": "Feature", "properties": { "NAMOBJ": "Gereja Pantekosta Ora Et Labora Bandarlampung", "LUAS": 0.0, "FGSIBD": 2, "FCODE": null, "REMARK": "Gereja", "SRS_ID": null, "LCODE": "GF0020", "METADATA": null, "Kecamatan": "Tanjung Karang Timur" }, "geometry": { "type": "Point", "coordinates": [ 105.263291851000076, -5.406938228999934, 0.0 ] } },
{ "type": "Feature", "properties": { "NAMOBJ": "Masjid Nurul Iman Durianpayung", "LUAS": 0.0, "FGSIBD": 1, "FCODE": null, "REMARK": "Masjid", "SRS_ID": null, "LCODE": "GF0020", "METADATA": null, "Kecamatan": "Tanjung Karang Pusat" }, "geometry": { "type": "Point", "coordinates": [ 105.248563878000084, -5.423953294999933, 417.0 ] } },
{ "type": "Feature", "properties": { "NAMOBJ": "Masjid Baitul Musyarofah Durianpayung", "LUAS": 0.0, "FGSIBD": 1, "FCODE": null, "REMARK": "Masjid", "SRS_ID": null, "LCODE": "GF0020", "METADATA": null, "Kecamatan": "Tanjung Karang Pusat" }, "geometry": { "type": "Point", "coordinates": [ 105.244935867000038, -5.421230464999951, 419.0 ] } },
{ "type": "Feature", "properties": { "NAMOBJ": "Masjid Muawwanah Tanjungkarang", "LUAS": 0.0, "FGSIBD": 1, "FCODE": null, "REMARK": "Masjid", "SRS_ID": null, "LCODE": "GF0020", "METADATA": null, "Kecamatan": "Tanjung Karang Pusat" }, "geometry": { "type": "Point", "coordinates": [ 105.252673972000082, -5.417188357999976, 0.0 ] } },
{ "type": "Feature", "properties": { "NAMOBJ": "Gereja GPIB Maituria Sukajawabaru", "LUAS": 0.0, "FGSIBD": 2, "FCODE": null, "REMARK": "Gereja", "SRS_ID": null, "LCODE": "GF0020", "METADATA": null, "Kecamatan": "Tanjung Karang Pusat" }, "geometry": { "type": "Point", "coordinates": [ 105.255661861000078, -5.409472404999974, 122.225000000005821 ] } },
{ "type": "Feature", "properties": { "NAMOBJ": "Masjid Mushowwirul Iman Pasirgintung", "LUAS": 0.0, "FGSIBD": 1, "FCODE": null, "REMARK": "Masjid", "SRS_ID": null, "LCODE": "GF0020", "METADATA": null, "Kecamatan": "Tanjung Karang Pusat" }, "geometry": { "type": "Point", "coordinates": [ 105.25532529700007, -5.406835528999977, 0.0 ] } },
{ "type": "Feature", "properties": { "NAMOBJ": "Mushola Husnul Khotimah Pasirgintung", "LUAS": 0.0, "FGSIBD": 1, "FCODE": null, "REMARK": "Masjid", "SRS_ID": null, "LCODE": "GF0020", "METADATA": null, "Kecamatan": "Tanjung Karang Pusat" }, "geometry": { "type": "Point", "coordinates": [ 105.256882876000077, -5.405468489999976, 0.0 ] } },
{ "type": "Feature", "properties": { "NAMOBJ": "Mushola Al Ikhlas Sukajawabaru", "LUAS": 0.0, "FGSIBD": 1, "FCODE": null, "REMARK": "Masjid", "SRS_ID": null, "LCODE": "GF0020", "METADATA": null, "Kecamatan": "Tanjung Karang Barat" }, "geometry": { "type": "Point", "coordinates": [ 105.252105425000082, -5.409573404999946, 131.369000000006054 ] } },
{ "type": "Feature", "properties": { "NAMOBJ": "Masjid Baiturrahman Gedongair", "LUAS": 0.0, "FGSIBD": 1, "FCODE": null, "REMARK": "Masjid", "SRS_ID": null, "LCODE": "GF0020", "METADATA": null, "Kecamatan": "Tanjung Karang Barat" }, "geometry": { "type": "Point", "coordinates": [ 105.245791112000063, -5.401992376999942, 0.0 ] } }
]
}
